{
  "norad_id": 61943,
  "name": "STARLINK-11425 [DTC]",
  "history": [
    {
      "epoch": "2026-03-28T21:58:06.691008",
      "apogee_km": 360.3381163529384,
      "perigee_km": 358.81808782590815,
      "latitude_deg": 52.001297790766515,
      "longitude_deg": 102.17410112009384,
      "semi_major_axis_km": 6737.715102089423,
      "eccentricity": 0.0001128,
      "inclination_deg": 53.1578,
      "raan_deg": 276.7689,
      "arg_perigee_deg": 99.3288,
      "mean_anomaly_deg": 260.7858,
      "mean_motion_rev_day": 15.69761947
    }
  ]
}